[{"OBJECT_NAME":"GOES 18","OBJECT_ID":"2022-021A","EPOCH":"2026-03-14T12:59:31.371648","MEAN_MOTION":1.0027282,"ECCENTRICITY":8.074e-5,"INCLINATION":0.0348,"RA_OF_ASC_NODE":37.315,"ARG_OF_PERICENTER":24.6626,"MEAN_ANOMALY":168.0462,"EPHEMERIS_TYPE":0,"CLASSIFICATION_TYPE":"U","NORAD_CAT_ID":51850,"ELEMENT_SET_NO":999,"REV_AT_EPOCH":564,"BSTAR":0,"MEAN_MOTION_DOT":9.6e-7,"MEAN_MOTION_DDOT":0},{"OBJECT_NAME":"GOES 19","OBJECT_ID":"2024-119A","EPOCH":"2026-03-14T13:17:07.184832","MEAN_MOTION":1.00271909,"ECCENTRICITY":0.00011049,"INCLINATION":0.0399,"RA_OF_ASC_NODE":331.225,"ARG_OF_PERICENTER":70.9444,"MEAN_ANOMALY":254.0878,"EPHEMERIS_TYPE":0,"CLASSIFICATION_TYPE":"U","NORAD_CAT_ID":60133,"ELEMENT_SET_NO":999,"REV_AT_EPOCH":601,"BSTAR":0,"MEAN_MOTION_DOT":-2.49e-6,"MEAN_MOTION_DDOT":0}]
